[
  {
    "CCSDS_OMM_VERS": "2.0",
    "COMMENT": "GENERATED VIA SPACE-TRACK.ORG API",
    "CREATION_DATE": "2021-12-03T17:32:05",
    "ORIGINATOR": "18 SPCS",
    "OBJECT_NAME": "MIDAS 5 DEB",
    "OBJECT_ID": "1962-010C",
    "CENTER_NAME": "EARTH",
    "REF_FRAME": "TEME",
    "TIME_SYSTEM": "UTC",
    "MEAN_ELEMENT_THEORY": "SGP4",
    "EPOCH": "2021-12-03T06:05:56.458752",
    "MEAN_MOTION": "9.43755671",
    "ECCENTRICITY": "0.02981780",
    "INCLINATION": "86.6741",
    "RA_OF_ASC_NODE": "179.4274",
    "ARG_OF_PERICENTER": "106.7845",
    "MEAN_ANOMALY": "256.5993",
    "EPHEMERIS_TYPE": "0",
    "CLASSIFICATION_TYPE": "U",
    "NORAD_CAT_ID": "273",
    "ELEMENT_SET_NO": "999",
    "REV_AT_EPOCH": "5496",
    "BSTAR": "0.00593760000000",
    "MEAN_MOTION_DOT": "0.00000035",
    "MEAN_MOTION_DDOT": "0.0000000000000",
    "SEMIMAJOR_AXIS": "9458.642",
    "PERIOD": "152.582",
    "APOAPSIS": "3362.543",
    "PERIAPSIS": "2798.471",
    "OBJECT_TYPE": "DEBRIS",
    "RCS_SIZE": "MEDIUM",
    "COUNTRY_CODE": "US",
    "LAUNCH_DATE": "1962-04-09",
    "SITE": "AFWTR",
    "DECAY_DATE": null,
    "FILE": "3231740",
    "GP_ID": "190991346",
    "TLE_LINE0": "0 MIDAS 5 DEB",
    "TLE_LINE1": "1 00273U 62010C   21337.25412568  .00000035  00000-0  59376-2 0  9990",
    "TLE_LINE2": "2 00273  86.6741 179.4274 0298178 106.7845 256.5993  9.43755671 54966"
  },
  {
    "CCSDS_OMM_VERS": "2.0",
    "COMMENT": "GENERATED VIA SPACE-TRACK.ORG API",
    "CREATION_DATE": "2021-12-03T17:32:05",
    "ORIGINATOR": "18 SPCS",
    "OBJECT_NAME": "MIDAS 5 DEB",
    "OBJECT_ID": "1962-010D",
    "CENTER_NAME": "EARTH",
    "REF_FRAME": "TEME",
    "TIME_SYSTEM": "UTC",
    "MEAN_ELEMENT_THEORY": "SGP4",
    "EPOCH": "2021-12-03T01:27:38.466432",
    "MEAN_MOTION": "9.39374003",
    "ECCENTRICITY": "0.03476360",
    "INCLINATION": "86.6714",
    "RA_OF_ASC_NODE": "213.5105",
    "ARG_OF_PERICENTER": "29.7617",
    "MEAN_ANOMALY": "332.2579",
    "EPHEMERIS_TYPE": "0",
    "CLASSIFICATION_TYPE": "U",
    "NORAD_CAT_ID": "274",
    "ELEMENT_SET_NO": "999",
    "REV_AT_EPOCH": "4517",
    "BSTAR": "0.01329600000000",
    "MEAN_MOTION_DOT": "0.00000070",
    "MEAN_MOTION_DDOT": "0.0000000000000",
    "SEMIMAJOR_AXIS": "9488.032",
    "PERIOD": "153.294",
    "APOAPSIS": "3439.735",
    "PERIAPSIS": "2780.059",
    "OBJECT_TYPE": "DEBRIS",
    "RCS_SIZE": "MEDIUM",
    "COUNTRY_CODE": "US",
    "LAUNCH_DATE": "1962-04-09",
    "SITE": "AFWTR",
    "DECAY_DATE": null,
    "FILE": "3231740",
    "GP_ID": "190989595",
    "TLE_LINE0": "0 MIDAS 5 DEB",
    "TLE_LINE1": "1 00274U 62010D   21337.06086188  .00000070  00000-0  13296-1 0  9994",
    "TLE_LINE2": "2 00274  86.6714 213.5105 0347636  29.7617 332.2579  9.39374003 45171"
  },
  {
    "CCSDS_OMM_VERS": "2.0",
    "COMMENT": "GENERATED VIA SPACE-TRACK.ORG API",
    "CREATION_DATE": "2021-12-03T17:32:05",
    "ORIGINATOR": "18 SPCS",
    "OBJECT_NAME": "THOR ABLESTAR DEB",
    "OBJECT_ID": "1961-015CQ",
    "CENTER_NAME": "EARTH",
    "REF_FRAME": "TEME",
    "TIME_SYSTEM": "UTC",
    "MEAN_ELEMENT_THEORY": "SGP4",
    "EPOCH": "2021-12-03T06:20:11.742720",
    "MEAN_MOTION": "13.67954311",
    "ECCENTRICITY": "0.01888720",
    "INCLINATION": "67.1684",
    "RA_OF_ASC_NODE": "273.3991",
    "ARG_OF_PERICENTER": "86.3750",
    "MEAN_ANOMALY": "275.8897",
    "EPHEMERIS_TYPE": "0",
    "CLASSIFICATION_TYPE": "U",
    "NORAD_CAT_ID": "299",
    "ELEMENT_SET_NO": "999",
    "REV_AT_EPOCH": "235",
    "BSTAR": "0.00013178000000",
    "MEAN_MOTION_DOT": "0.00000058",
    "MEAN_MOTION_DDOT": "0.0000000000000",
    "SEMIMAJOR_AXIS": "7385.061",
    "PERIOD": "105.267",
    "APOAPSIS": "1146.410",
    "PERIAPSIS": "867.443",
    "OBJECT_TYPE": "DEBRIS",
    "RCS_SIZE": "SMALL",
    "COUNTRY_CODE": "US",
    "LAUNCH_DATE": "1961-06-29",
    "SITE": "AFETR",
    "DECAY_DATE": null,
    "FILE": "3231740",
    "GP_ID": "190989845",
    "TLE_LINE0": "0 THOR ABLESTAR DEB",
    "TLE_LINE1": "1 00299U 61015CQ  21337.26402480  .00000058  00000-0  13178-3 0  9991",
    "TLE_LINE2": "2 00299  67.1684 273.3991 0188872  86.3750 275.8897 13.67954311  2357"
  },
  {
    "CCSDS_OMM_VERS": "2.0",
    "COMMENT": "GENERATED VIA SPACE-TRACK.ORG API",
    "CREATION_DATE": "2021-12-03T17:32:05",
    "ORIGINATOR": "18 SPCS",
    "OBJECT_NAME": "TIROS 5",
    "OBJECT_ID": "1962-025A",
    "CENTER_NAME": "EARTH",
    "REF_FRAME": "TEME",
    "TIME_SYSTEM": "UTC",
    "MEAN_ELEMENT_THEORY": "SGP4",
    "EPOCH": "2021-12-03T12:43:24.612672",
    "MEAN_MOTION": "14.56959718",
    "ECCENTRICITY": "0.01966210",
    "INCLINATION": "58.0891",
    "RA_OF_ASC_NODE": "170.1091",
    "ARG_OF_PERICENTER": "147.2084",
    "MEAN_ANOMALY": "214.1328",
    "EPHEMERIS_TYPE": "0",
    "CLASSIFICATION_TYPE": "U",
    "NORAD_CAT_ID": "309",
    "ELEMENT_SET_NO": "999",
    "REV_AT_EPOCH": "14012",
    "BSTAR": "0.00003666700000",
    "MEAN_MOTION_DOT": "0.00000003",
    "MEAN_MOTION_DDOT": "0.0000000000000",
    "SEMIMAJOR_AXIS": "7081.145",
    "PERIOD": "98.836",
    "APOAPSIS": "842.240",
    "PERIAPSIS": "563.780",
    "OBJECT_TYPE": "PAYLOAD",
    "RCS_SIZE": "MEDIUM",
    "COUNTRY_CODE": "US",
    "LAUNCH_DATE": "1962-06-19",
    "SITE": "AFETR",
    "DECAY_DATE": null,
    "FILE": "3231740",
    "GP_ID": "190991096",
    "TLE_LINE0": "0 TIROS 5",
    "TLE_LINE1": "1 00309U 62025A   21337.53014598  .00000003  00000-0  36667-4 0  9993",
    "TLE_LINE2": "2 00309  58.0891 170.1091 0196621 147.2084 214.1328 14.56959718140129"
  },
  {
    "CCSDS_OMM_VERS": "2.0",
    "COMMENT": "GENERATED VIA SPACE-TRACK.ORG API",
    "CREATION_DATE": "2021-12-04T06:56:11",
    "ORIGINATOR": "18 SPCS",
    "OBJECT_NAME": "DELTA 1 DEB (YO)",
    "OBJECT_ID": "1962-025C",
    "CENTER_NAME": "EARTH",
    "REF_FRAME": "TEME",
    "TIME_SYSTEM": "UTC",
    "MEAN_ELEMENT_THEORY": "SGP4",
    "EPOCH": "2021-12-04T02:17:51.202464",
    "MEAN_MOTION": "14.54706054",
    "ECCENTRICITY": "0.02038180",
    "INCLINATION": "58.2495",
    "RA_OF_ASC_NODE": "299.7135",
    "ARG_OF_PERICENTER": "261.9444",
    "MEAN_ANOMALY": "95.8416",
    "EPHEMERIS_TYPE": "0",
    "CLASSIFICATION_TYPE": "U",
    "NORAD_CAT_ID": "312",
    "ELEMENT_SET_NO": "999",
    "REV_AT_EPOCH": "11785",
    "BSTAR": "0.00004691500000",
    "MEAN_MOTION_DOT": "0.00000060",
    "MEAN_MOTION_DDOT": "0.0000000000000",
    "SEMIMAJOR_AXIS": "7088.456",
    "PERIOD": "98.989",
    "APOAPSIS": "854.797",
    "PERIAPSIS": "565.846",
    "OBJECT_TYPE": "DEBRIS",
    "RCS_SIZE": "SMALL",
    "COUNTRY_CODE": "US",
    "LAUNCH_DATE": "1962-06-19",
    "SITE": "AFETR",
    "DECAY_DATE": null,
    "FILE": "3232051",
    "GP_ID": "191043634",
    "TLE_LINE0": "0 DELTA 1 DEB (YO)",
    "TLE_LINE1": "1   312U 62025C   21338.09573151  .00000060  00000-0  46915-4 0  9994",
    "TLE_LINE2": "2   312  58.2495 299.7135 0203818 261.9444  95.8416 14.54706054117850"
  },
  {
    "CCSDS_OMM_VERS": "2.0",
    "COMMENT": "GENERATED VIA SPACE-TRACK.ORG API",
    "CREATION_DATE": "2021-12-03T17:32:05",
    "ORIGINATOR": "18 SPCS",
    "OBJECT_NAME": "THOR ABLESTAR DEB",
    "OBJECT_ID": "1961-015CU",
    "CENTER_NAME": "EARTH",
    "REF_FRAME": "TEME",
    "TIME_SYSTEM": "UTC",
    "MEAN_ELEMENT_THEORY": "SGP4",
    "EPOCH": "2021-12-03T11:16:05.522304",
    "MEAN_MOTION": "14.86711563",
    "ECCENTRICITY": "0.00724730",
    "INCLINATION": "66.5364",
    "RA_OF_ASC_NODE": "5.5557",
    "ARG_OF_PERICENTER": "204.0389",
    "MEAN_ANOMALY": "155.7349",
    "EPHEMERIS_TYPE": "0",
    "CLASSIFICATION_TYPE": "U",
    "NORAD_CAT_ID": "318",
    "ELEMENT_SET_NO": "999",
    "REV_AT_EPOCH": "16555",
    "BSTAR": "0.00019173000000",
    "MEAN_MOTION_DOT": "0.00001656",
    "MEAN_MOTION_DDOT": "0.0000000000000",
    "SEMIMAJOR_AXIS": "6986.356",
    "PERIOD": "96.858",
    "APOAPSIS": "658.853",
    "PERIAPSIS": "557.589",
    "OBJECT_TYPE": "DEBRIS",
    "RCS_SIZE": "SMALL",
    "COUNTRY_CODE": "US",
    "LAUNCH_DATE": "1961-06-29",
    "SITE": "AFETR",
    "DECAY_DATE": null,
    "FILE": "3231740",
    "GP_ID": "190990095",
    "TLE_LINE0": "0 THOR ABLESTAR DEB",
    "TLE_LINE1": "1 00318U 61015CU  21337.46950836  .00001656  00000-0  19173-3 0  9994",
    "TLE_LINE2": "2 00318  66.5364   5.5557 0072473 204.0389 155.7349 14.86711563165558"
  },
  {
    "CCSDS_OMM_VERS": "2.0",
    "COMMENT": "GENERATED VIA SPACE-TRACK.ORG API",
    "CREATION_DATE": "2021-12-03T22:46:10",
    "ORIGINATOR": "18 SPCS",
    "OBJECT_NAME": "THOR ABLESTAR DEB",
    "OBJECT_ID": "1961-015CW",
    "CENTER_NAME": "EARTH",
    "REF_FRAME": "TEME",
    "TIME_SYSTEM": "UTC",
    "MEAN_ELEMENT_THEORY": "SGP4",
    "EPOCH": "2021-12-03T14:04:13.670112",
    "MEAN_MOTION": "14.27293228",
    "ECCENTRICITY": "0.01414180",
    "INCLINATION": "66.9071",
    "RA_OF_ASC_NODE": "12.3407",
    "ARG_OF_PERICENTER": "214.1596",
    "MEAN_ANOMALY": "145.0344",
    "EPHEMERIS_TYPE": "0",
    "CLASSIFICATION_TYPE": "U",
    "NORAD_CAT_ID": "320",
    "ELEMENT_SET_NO": "999",
    "REV_AT_EPOCH": "13177",
    "BSTAR": "0.00005153100000",
    "MEAN_MOTION_DOT": "0.00000054",
    "MEAN_MOTION_DDOT": "0.0000000000000",
    "SEMIMAJOR_AXIS": "7178.930",
    "PERIOD": "100.890",
    "APOAPSIS": "902.318",
    "PERIAPSIS": "699.272",
    "OBJECT_TYPE": "DEBRIS",
    "RCS_SIZE": "MEDIUM",
    "COUNTRY_CODE": "US",
    "LAUNCH_DATE": "1961-06-29",
    "SITE": "AFETR",
    "DECAY_DATE": null,
    "FILE": "3231796",
    "GP_ID": "191014564",
    "TLE_LINE0": "0 THOR ABLESTAR DEB",
    "TLE_LINE1": "1   320U 61015CW  21337.58626933  .00000054  00000-0  51531-4 0  9994",
    "TLE_LINE2": "2   320  66.9071  12.3407 0141418 214.1596 145.0344 14.27293228131770"
  }
]
